Replace "Callisto" "Sol/Jupiter"
{
  Texture     "Callisto.png"
  #NormalMap  "CallistoNormal.png"
  #NormalMap  "8k.CallistoNormal.png"
   SemiAxes [ 2410.3 2410.3 2410.3 ]
  #SpecularColor [ 0.07 0.06 0.05 ]
  #SpecularPower 0.2
   OrbitColor [ 0.5 0.2 0.2 ]
  Timeline
  [
  # Before spice
  {
    OrbitFrame { EclipticJ2000 { Center "Sol/Jupiter_bary" }}
    BodyFrame  { EquatorJ2000  { Center "Sol/Jupiter" }}
    Ending    "1900 02 01 00:00:41.183  " # add 1 month for drawing orbit

    EllipticalOrbit
    {
      Epoch        2415051.500000000              # 1900 02 01
      Eccentricity       7.359959261877268E-03    # well Ecc.
      AscendingNode      3.467492198799084E+02    # Deg.
      SemiMajorAxis      1.882765816143390E+06    # Km.
      ArgOfPericenter    2.955087483186379E+02    # Deg.
      MeanAnomaly        2.730305972213145E+02    # Deg.
      Inclination        2.005342103927259E+00    # Deg.
      Period             1.669119034001401E+01    # days
    }
    CustomRotation "iau-callisto"
  }
  # spice
  {
    OrbitFrame { EclipticJ2000 { Center "Sol/Jupiter_bary" }}
    BodyFrame  { EclipticJ2000 { Center "Sol/Jupiter"      }}
    Ending    "2099 12 01 00:01:07.183"   # minus 1 month for drawing orbit

    SpiceOrbit
    {
      Kernel "jup310.bsp"
      Target "504"
      Origin "5"
      Period  16.689018
      BoundingRadius 1e10
    }
    SpiceRotation
    {
      Kernel            [ "pck00010.tpc"  "naif0012.tls"  ]
      Frame               "IAU_CALLISTO"
    }
  }
  # After spice
  {
    OrbitFrame { EclipticJ2000 { Center "Sol/Jupiter_bary" }}
    BodyFrame  { EquatorJ2000  { Center "Sol/Jupiter" }}

    EllipticalOrbit
    {
      Epoch        2488038.500000000              # 2099 12 01
      Eccentricity       7.398464161504002E-03    # well Ecc.
      AscendingNode      3.347480452383226E+02    # Deg.
      SemiMajorAxis      1.882725849739685E+06    # Km.
      ArgOfPericenter    8.196377675552074E+01    # Deg.
      MeanAnomaly        2.664248717832737E+02    # Deg.
      Inclination        1.822953763989910E+00    # Deg.
      Period             1.669065887457186E+01    # days
    }
    CustomRotation "iau-callisto"
   }
  ]
}

Replace  "Amalthea" "Sol/Jupiter"
{
  Class       "moon"
  Texture     "Amathia.png"
   SemiAxes   [ 125 73 64 ]
  Color       [ 0.63 0.45 0.35 ]
   OrbitColor [ 0.4 0.4 0.2 ]
  Timeline
  [
  # Before spice
  {
    OrbitFrame { EclipticJ2000 { Center "Sol/Jupiter_bary" }}
    BodyFrame  { EquatorJ2000  { Center "Sol/Jupiter" }}
    Ending    "1900 02 01 00:00:41.183  " # add 1 month for drawing orbit

    EllipticalOrbit
    {
      Epoch        2415051.500000000              # 1900 02 01
      Eccentricity       6.229049453154953E-03    # well Ecc.
      AscendingNode      3.283248702131328E+02    # Deg.
      SemiMajorAxis      1.820012549310880E+05    # Km.
      ArgOfPericenter    1.914966156889035E+02    # Deg.
      MeanAnomaly        3.312098819726006E+02    # Deg.
      Inclination        2.262658038355694E+00    # Deg.
      Period             5.016115372901322E-01    # days
    }
    CustomRotation "iau-amalthea"
  }
  # spice
  {
    OrbitFrame { EclipticJ2000 { Center "Sol/Jupiter_bary" }}
    BodyFrame  { EclipticJ2000 { Center "Sol/Jupiter"      }}
    Ending    "2099 12 01 00:01:07.183"   # minus 1 month for drawing orbit

    SpiceOrbit
    {
      Kernel "jup310.bsp"
      Target "505"
      Origin "5"
      Period  0.498179
      BoundingRadius 1e10
    }
    SpiceRotation
    {
      Kernel           [  "pck00010.tpc"  "naif0012.tls"  ]
      Frame               "IAU_AMALTHEA"
    }
  }
  # After spice
  {
    OrbitFrame { EclipticJ2000 { Center "Sol/Jupiter_bary" }}
    BodyFrame  { EquatorJ2000  { Center "Sol/Jupiter" }}

    EllipticalOrbit
    {
      Epoch        2488038.500000000              # 2099 12 02
      Eccentricity       5.760737236792011E-03    # well Ecc.
      AscendingNode      3.345158405161260E+02    # Deg.
      SemiMajorAxis      1.818220814959620E+05    # Km.
      ArgOfPericenter    2.594078209021028E+01    # Deg.
      MeanAnomaly        3.321515640038996E+02    # Deg.
      Inclination        2.568557540969850E+00    # Deg.
      Period             5.008709929003712E-01    # days
    }
    CustomRotation "iau-amalthea"
   }
  ]
}

Replace "Thebe" "Sol/Jupiter"
{
  Class "moon"
  Texture   "z.SmallMoon1.png"
  NormalMap "z.SmallMoonNormal1.png"
  BlendTexture true
  Color       [ 0.63 0.45 0.35 ]
  SemiAxes    [ 58 49 42 ]
  OrbitColor  [ 0.4 0.4 0.2 ]
  Timeline
  [
  # Before spice
  {
    OrbitFrame { EclipticJ2000 { Center "Sol/Jupiter_bary" }}
    BodyFrame  { EquatorJ2000  { Center "Sol/Jupiter" }}
    Ending    "1900 02 01 00:00:41.183 " # add 1 month for drawing orbit

    EllipticalOrbit
    {
      Epoch        2415051.500000000              # 1900 02 01
      Eccentricity       1.606137227913269E-02    # well Ecc.
      AscendingNode      6.844940030445441E+00    # Deg.
      SemiMajorAxis      2.223052542004502E+05    # Km.
      ArgOfPericenter    1.659774102895996E+02    # Deg.
      MeanAnomaly        1.435115748075189E+02    # Deg.
      Inclination        1.983675847730219E+00    # Deg.
      Period             6.771432185333762E-01    # days
    }
    CustomRotation "iau-thebe"
  }
  # spice
  {
    OrbitFrame { EclipticJ2000 { Center "Sol/Jupiter_bary" }}
    BodyFrame  { EclipticJ2000 { Center "Sol/Jupiter"      }}
    Ending    "2099 12 01 00:01:07.183"   # minus 1 month for drawing orbit

    SpiceOrbit
    {
      Kernel "jup310.bsp"
      Target "514"
      Origin "5"
      Period         0.674536
      BoundingRadius 1e10
    }

    SpiceRotation
    {
      Kernel            [ "pck00010.tpc"  "naif0012.tls"  ]
      Frame               "IAU_THEBE"
    }
  }
  # After spice
  {
    OrbitFrame { EclipticJ2000 { Center "Sol/Jupiter_bary" }}
    BodyFrame  { EquatorJ2000  { Center "Sol/Jupiter" }}

    EllipticalOrbit
    {
      Epoch        2488038.500000000              # 2099 12 02
      Eccentricity       1.591049836345017E-02    # well Ecc.
      AscendingNode      3.088102356320387E+02    # Deg.
      SemiMajorAxis      2.222653595682718E+05    # Km.
      ArgOfPericenter    2.499945229827543E+02    # Deg.
      MeanAnomaly        2.194515177401913E+02    # Deg.
      Inclination        2.007095968885968E+00    # Deg.
      Period             6.769609477563918E-01    # days
    }
    CustomRotation "iau-thebe"
  }
  ]
  Albedo 0.047
}


Replace "Adrastea" "Sol/Jupiter"
{
  Class "moon"
  Texture   "z.SmallMoon2.png"
  NormalMap "z.SmallMoonNormal2.png"
  BlendTexture true
  Color       [ 0.63 0.45 0.35 ]
  SemiAxes    [ 10 8 7 ]
  OrbitColor  [ 0.4 0.4 0.2 ]
  Timeline
  [
  # Before spice
  {
    OrbitFrame { EclipticJ2000 { Center "Sol/Jupiter_bary" }}
    BodyFrame  { EquatorJ2000  { Center "Sol/Jupiter" }}
    Ending     "1900 02 01 00:00:41.183 " # add 1 month for drawing orbit

    EllipticalOrbit
    {
      Epoch        2415051.500000000              # 1900 02 01
      Eccentricity       7.212347622337700E-03    # well Ecc.
      AscendingNode      3.377038365042424E+02    # Deg.
      SemiMajorAxis      1.299555702343904E+05    # Km.
      ArgOfPericenter    5.918049715821878E+01    # Deg.
      MeanAnomaly        2.243854364688085E+00    # Deg.
      Inclination        2.205547490625356E+00    # Deg.
      Period             3.026553053292438E-01    # days
    }
    CustomRotation "iau-adrastea"
  }
  # spice
  {
    OrbitFrame { EclipticJ2000 { Center "Sol/Jupiter_bary" }}
    BodyFrame  { EclipticJ2000 { Center "Sol/Jupiter" }}
    Ending    "2099 12 01 00:01:07.183"   # minus 1 month for drawing orbit

    SpiceOrbit
    {
      Kernel "jup310.bsp"
      Target "515"
      Origin "5"
      Period         0.29826
      BoundingRadius 1e10
    }

    SpiceRotation
    {
      Kernel            [ "pck00010.tpc"  "naif0012.tls"  ]
      Frame               "IAU_ADRASTEA"
    }
  }
  # After spice
  {
    OrbitFrame { EclipticJ2000 { Center "Sol/Jupiter_bary" }}
    BodyFrame  { EquatorJ2000  { Center "Sol/Jupiter" }}

    EllipticalOrbit
    {
      Epoch        2488038.500000000              # 2049 12 01
      Eccentricity       6.342741512055649E-03    # well Ecc.
      AscendingNode      3.380652677416233E+02    # Deg.
      SemiMajorAxis      1.297212266690445E+05    # Km.
      ArgOfPericenter    4.604812090500413E+01    # Deg.
      MeanAnomaly        2.140865627985972E+00    # Deg.
      Inclination        2.212870252379792E+00    # Deg.
      Period             3.018370255964786E-01    # days
    }
    CustomRotation "iau-adrastea"
   }
  ]
  Albedo 0.1
}

